{
"type": "FeatureCollection",
"name": "addresses",
"crs": { "type": "name", "properties": { "name": "urn:ogc:def:crs:OGC:1.3:CRS84" } },
"features": [
{ "type": "Feature", "properties": { "osm_id": 8603118309, "amenity": "cafe", "operator": "Monique Ryan", "addr:housenumber": "10687", "name": "Patriot Pawsabilities", "shop": null, "brand": null, "sport": null, "ref": null, "website": "https:\/\/www.patriotpawsabilities.com\/", "addr:city": "Fairfax", "addr:postcode": "22032", "description": "Cat Lounge", "addr:state": "VA", "phone": "+1-703-259-0174", "theme": "cat", "opening_hours": "Th-Mo 12:00-18:00", "addr:street": "Braddock Road", "payment:cash": null, "payment:credit_cards": null, "air_conditioning": null, "internet_access": null, "addr:unit": null, "brand:wikidata": null, "cuisine": null, "takeaway": null, "drive_through": null, "alt_name": null, "diet:meat": null, "diet:vegetarian": null, "diet:halal": null, "wheelchair": null, "official_name": null, "branch": null, "smoking": null, "short_name": null, "delivery": null, "not:brand:wikidata": null, "indoor_seating": null, "number": null }, "geometry": { "type": "Point", "coordinates": [ -77.3154063, 38.8247598 ] } },
{ "type": "Feature", "properties": { "osm_id": 8660388118, "amenity": null, "operator": null, "addr:housenumber": "10647", "name": "The Amazing Comic Shop", "shop": "books", "brand": null, "sport": null, "ref": null, "website": "https:\/\/amazingcomicshop.wordpress.com\/", "addr:city": "Fairfax", "addr:postcode": "22032", "description": null, "addr:state": "VA", "phone": "+1 703-250-6479", "theme": null, "opening_hours": "Mo-Su 10:30-20:00", "addr:street": "Braddock Road", "payment:cash": "yes", "payment:credit_cards": "yes", "air_conditioning": "yes", "internet_access": "no", "addr:unit": null, "brand:wikidata": null, "cuisine": null, "takeaway": null, "drive_through": null, "alt_name": null, "diet:meat": null, "diet:vegetarian": null, "diet:halal": null, "wheelchair": null, "official_name": null, "branch": null, "smoking": null, "short_name": null, "delivery": null, "not:brand:wikidata": null, "indoor_seating": null, "number": null }, "geometry": { "type": "Point", "coordinates": [ -77.3149358, 38.8252034 ] } },
{ "type": "Feature", "properties": { "osm_id": 8665206344, "amenity": "restaurant", "operator": null, "addr:housenumber": "10659", "name": "Oh George! Tables and Taphouse", "shop": null, "brand": null, "sport": null, "ref": null, "website": "https:\/\/ohgeorge.com\/", "addr:city": "Fairfax", "addr:postcode": "22032", "description": null, "addr:state": "VA", "phone": "+1 703-543-4161", "theme": null, "opening_hours": "Mo-Fr 16:00-22:00; Sa,Su 11:00-22:00", "addr:street": "Braddock Road", "payment:cash": null, "payment:credit_cards": null, "air_conditioning": null, "internet_access": null, "addr:unit": "C", "brand:wikidata": null, "cuisine": null, "takeaway": null, "drive_through": null, "alt_name": null, "diet:meat": null, "diet:vegetarian": null, "diet:halal": null, "wheelchair": null, "official_name": null, "branch": null, "smoking": null, "short_name": null, "delivery": null, "not:brand:wikidata": null, "indoor_seating": null, "number": null }, "geometry": { "type": "Point", "coordinates": [ -77.3137769, 38.8249943 ] } },
{ "type": "Feature", "properties": { "osm_id": 11378598537, "amenity": "fast_food", "operator": null, "addr:housenumber": "10669", "name": "Insomnia Cookies", "shop": "pastry", "brand": "Insomnia Cookies", "sport": null, "ref": null, "website": null, "addr:city": "Fairfax", "addr:postcode": "22032", "description": null, "addr:state": "VA", "phone": null, "theme": null, "opening_hours": null, "addr:street": "Braddock Road", "payment:cash": null, "payment:credit_cards": null, "air_conditioning": null, "internet_access": null, "addr:unit": "A", "brand:wikidata": "Q16997024", "cuisine": null, "takeaway": null, "drive_through": null, "alt_name": null, "diet:meat": null, "diet:vegetarian": null, "diet:halal": null, "wheelchair": null, "official_name": null, "branch": null, "smoking": null, "short_name": null, "delivery": null, "not:brand:wikidata": null, "indoor_seating": null, "number": null }, "geometry": { "type": "Point", "coordinates": [ -77.314689, 38.8250456 ] } },
{ "type": "Feature", "properties": { "osm_id": 8719751247, "amenity": "dojo", "operator": null, "addr:housenumber": "10635", "name": "Merchant Logo Black Belt Academy", "shop": null, "brand": null, "sport": "karate;taekwondo", "ref": null, "website": null, "addr:city": "Fairfax", "addr:postcode": "22032", "description": null, "addr:state": "VA", "phone": null, "theme": null, "opening_hours": "Mo-Fr 14:00-21:00, Sa 9:00-14:00", "addr:street": "Braddock Road", "payment:cash": null, "payment:credit_cards": null, "air_conditioning": null, "internet_access": null, "addr:unit": null, "brand:wikidata": null, "cuisine": null, "takeaway": null, "drive_through": null, "alt_name": null, "diet:meat": null, "diet:vegetarian": null, "diet:halal": null, "wheelchair": null, "official_name": null, "branch": null, "smoking": null, "short_name": null, "delivery": null, "not:brand:wikidata": null, "indoor_seating": null, "number": null }, "geometry": { "type": "Point", "coordinates": [ -77.3147946, 38.8251994 ] } },
{ "type": "Feature", "properties": { "osm_id": 8665307848, "amenity": "ice_cream", "operator": null, "addr:housenumber": "10631", "name": "Peachwave", "shop": null, "brand": "Peachwave", "sport": null, "ref": null, "website": "https:\/\/www.peachwaveyogurt.com\/", "addr:city": "Fairfax", "addr:postcode": "22032", "description": null, "addr:state": "VA", "phone": "+1 571-487-9109", "theme": null, "opening_hours": "Mo-Su 14:00-21:00", "addr:street": "Braddock Road", "payment:cash": null, "payment:credit_cards": null, "air_conditioning": null, "internet_access": null, "addr:unit": null, "brand:wikidata": "Q109329113", "cuisine": "frozen_yogurt", "takeaway": null, "drive_through": null, "alt_name": null, "diet:meat": null, "diet:vegetarian": null, "diet:halal": null, "wheelchair": null, "official_name": null, "branch": null, "smoking": null, "short_name": null, "delivery": null, "not:brand:wikidata": null, "indoor_seating": null, "number": null }, "geometry": { "type": "Point", "coordinates": [ -77.3146533, 38.8251995 ] } },
{ "type": "Feature", "properties": { "osm_id": 11378598538, "amenity": "theatre", "operator": null, "addr:housenumber": "10659", "name": "University Mall Theatres", "shop": null, "brand": null, "sport": null, "ref": null, "website": "https:\/\/www.universitymalltheatres.com\/", "addr:city": "Fairfax", "addr:postcode": "22032", "description": null, "addr:state": "VA", "phone": null, "theme": null, "opening_hours": null, "addr:street": "Braddock Road", "payment:cash": null, "payment:credit_cards": null, "air_conditioning": null, "internet_access": null, "addr:unit": "A", "brand:wikidata": null, "cuisine": null, "takeaway": null, "drive_through": null, "alt_name": null, "diet:meat": null, "diet:vegetarian": null, "diet:halal": null, "wheelchair": null, "official_name": null, "branch": null, "smoking": null, "short_name": null, "delivery": null, "not:brand:wikidata": null, "indoor_seating": null, "number": null }, "geometry": { "type": "Point", "coordinates": [ -77.3143126, 38.8251075 ] } },
{ "type": "Feature", "properties": { "osm_id": 8719751250, "amenity": null, "operator": null, "addr:housenumber": "10627", "name": "SuitUp Water Sports & Alpha ID Products", "shop": "sports", "brand": null, "sport": "swimming", "ref": null, "website": "https:\/\/shopumall.com\/", "addr:city": "Fairfax", "addr:postcode": "22032", "description": null, "addr:state": "VA", "phone": "+1 703-278-8202", "theme": null, "opening_hours": "Mo-Fr 10:00-17:00, Sa-Su 12:00-16:00", "addr:street": "Braddock Road", "payment:cash": "yes", "payment:credit_cards": "yes", "air_conditioning": null, "internet_access": null, "addr:unit": null, "brand:wikidata": null, "cuisine": null, "takeaway": null, "drive_through": null, "alt_name": null, "diet:meat": null, "diet:vegetarian": null, "diet:halal": null, "wheelchair": null, "official_name": null, "branch": null, "smoking": null, "short_name": null, "delivery": null, "not:brand:wikidata": null, "indoor_seating": null, "number": null }, "geometry": { "type": "Point", "coordinates": [ -77.3145109, 38.8251803 ] } },
{ "type": "Feature", "properties": { "osm_id": 11378598539, "amenity": "restaurant", "operator": null, "addr:housenumber": "10621", "name": "Bangkok Golden Thai", "shop": null, "brand": null, "sport": null, "ref": null, "website": "https:\/\/bangkokgolden.com\/", "addr:city": "Fairfax", "addr:postcode": "22032", "description": null, "addr:state": "VA", "phone": null, "theme": null, "opening_hours": null, "addr:street": "Braddock Road", "payment:cash": null, "payment:credit_cards": null, "air_conditioning": null, "internet_access": null, "addr:unit": null, "brand:wikidata": null, "cuisine": "thai", "takeaway": null, "drive_through": null, "alt_name": null, "diet:meat": null, "diet:vegetarian": null, "diet:halal": null, "wheelchair": null, "official_name": null, "branch": null, "smoking": null, "short_name": null, "delivery": null, "not:brand:wikidata": null, "indoor_seating": null, "number": null }, "geometry": { "type": "Point", "coordinates": [ -77.3143268, 38.8252321 ] } },
{ "type": "Feature", "properties": { "osm_id": 7212088021, "amenity": "fast_food", "operator": null, "addr:housenumber": "10649", "name": "Domino's", "shop": null, "brand": "Domino's", "sport": null, "ref": "4247", "website": "https:\/\/pizza.dominos.com\/virginia\/fairfax\/10649-a-braddock-road\/", "addr:city": "Fairfax", "addr:postcode": "22032", "description": null, "addr:state": "VA", "phone": "+1 703-352-0990", "theme": null, "opening_hours": "Mo-Fr 00:00-01:00,10:30-00:00; Sa-Su 00:00-02:00,10:30-00:00", "addr:street": "Braddock Road", "payment:cash": null, "payment:credit_cards": null, "air_conditioning": null, "internet_access": null, "addr:unit": "A", "brand:wikidata": "Q839466", "cuisine": "pizza", "takeaway": "yes", "drive_through": null, "alt_name": null, "diet:meat": null, "diet:vegetarian": null, "diet:halal": null, "wheelchair": null, "official_name": null, "branch": null, "smoking": null, "short_name": null, "delivery": null, "not:brand:wikidata": null, "indoor_seating": null, "number": null }, "geometry": { "type": "Point", "coordinates": [ -77.3146973, 38.8254646 ] } },
{ "type": "Feature", "properties": { "osm_id": 3833711411, "amenity": "fast_food", "operator": null, "addr:housenumber": "10645", "name": "McDonald's", "shop": null, "brand": "McDonald's", "sport": null, "ref": null, "website": "https:\/\/www.mcdonalds.com\/us\/en-us\/location\/20652.html", "addr:city": "Fairfax", "addr:postcode": "22032", "description": null, "addr:state": "VA", "phone": "+1 703-278-0357", "theme": null, "opening_hours": "Mo 06:00-24:00; Tu-Sa 06:00-01:00; Su 06:30-24:00", "addr:street": "Braddock Road", "payment:cash": null, "payment:credit_cards": null, "air_conditioning": null, "internet_access": "wlan", "addr:unit": null, "brand:wikidata": "Q38076", "cuisine": "burger", "takeaway": "yes", "drive_through": null, "alt_name": null, "diet:meat": null, "diet:vegetarian": null, "diet:halal": null, "wheelchair": null, "official_name": null, "branch": null, "smoking": null, "short_name": null, "delivery": null, "not:brand:wikidata": null, "indoor_seating": null, "number": null }, "geometry": { "type": "Point", "coordinates": [ -77.3149096, 38.8256361 ] } },
{ "type": "Feature", "properties": { "osm_id": 7212088022, "amenity": "fast_food", "operator": null, "addr:housenumber": "10633", "name": "Dunkin'", "shop": null, "brand": "Dunkin'", "sport": null, "ref": "308047", "website": "https:\/\/locations.dunkindonuts.com\/en\/va\/fairfax\/10633-braddock-rd\/308047", "addr:city": "Fairfax", "addr:postcode": "22032", "description": null, "addr:state": "VA", "phone": "+1 703-691-4090", "theme": null, "opening_hours": "Mo-Sa 05:00-19:00; Su 06:00-19:00", "addr:street": "Braddock Road", "payment:cash": null, "payment:credit_cards": null, "air_conditioning": null, "internet_access": null, "addr:unit": null, "brand:wikidata": "Q847743", "cuisine": "donut;coffee_shop", "takeaway": "yes", "drive_through": "no", "alt_name": "Dunkin' Donuts", "diet:meat": null, "diet:vegetarian": null, "diet:halal": null, "wheelchair": null, "official_name": null, "branch": null, "smoking": null, "short_name": null, "delivery": null, "not:brand:wikidata": null, "indoor_seating": null, "number": null }, "geometry": { "type": "Point", "coordinates": [ -77.3145576, 38.8254592 ] } },
{ "type": "Feature", "properties": { "osm_id": 8663161854, "amenity": "restaurant", "operator": null, "addr:housenumber": "10629", "name": "Taco bBamba", "shop": null, "brand": null, "sport": null, "ref": null, "website": "https:\/\/www.tacobamba.com\/", "addr:city": "Fairfax", "addr:postcode": "22032", "description": null, "addr:state": "VA", "phone": "+1 571-655-6265", "theme": null, "opening_hours": "Mo-Su 10:00-21:00", "addr:street": "Braddock Road", "payment:cash": null, "payment:credit_cards": null, "air_conditioning": null, "internet_access": null, "addr:unit": null, "brand:wikidata": null, "cuisine": "mexican;tacos", "takeaway": null, "drive_through": null, "alt_name": null, "diet:meat": "yes", "diet:vegetarian": "yes", "diet:halal": null, "wheelchair": null, "official_name": null, "branch": null, "smoking": null, "short_name": null, "delivery": null, "not:brand:wikidata": null, "indoor_seating": null, "number": null }, "geometry": { "type": "Point", "coordinates": [ -77.314498, 38.8254609 ] } },
{ "type": "Feature", "properties": { "osm_id": 8663534571, "amenity": "fast_food", "operator": null, "addr:housenumber": "10625", "name": "The Halal Guys", "shop": null, "brand": "The Halal Guys", "sport": null, "ref": null, "website": "https:\/\/thehalalguys.com\/locations\/10625-braddock-rd-fairfax\/", "addr:city": "Fairfax", "addr:postcode": "22032", "description": null, "addr:state": "VA", "phone": "+1 703-825-7370", "theme": null, "opening_hours": "Mo-Su 11:00-23:00", "addr:street": "Braddock Road", "payment:cash": null, "payment:credit_cards": null, "air_conditioning": null, "internet_access": null, "addr:unit": null, "brand:wikidata": "Q10846129", "cuisine": "chicken;falafel;gyros", "takeaway": "yes", "drive_through": null, "alt_name": null, "diet:meat": null, "diet:vegetarian": null, "diet:halal": "yes", "wheelchair": null, "official_name": null, "branch": null, "smoking": null, "short_name": null, "delivery": null, "not:brand:wikidata": null, "indoor_seating": null, "number": null }, "geometry": { "type": "Point", "coordinates": [ -77.3144455, 38.8254401 ] } },
{ "type": "Feature", "properties": { "osm_id": 7212088025, "amenity": null, "operator": null, "addr:housenumber": "10621", "name": "Regency Cleaners & Tailor", "shop": "dry_cleaning", "brand": null, "sport": null, "ref": null, "website": null, "addr:city": "Fairfax", "addr:postcode": "22032", "description": null, "addr:state": "VA", "phone": null, "theme": null, "opening_hours": null, "addr:street": "Braddock Road", "payment:cash": null, "payment:credit_cards": null, "air_conditioning": null, "internet_access": null, "addr:unit": null, "brand:wikidata": null, "cuisine": null, "takeaway": null, "drive_through": null, "alt_name": null, "diet:meat": null, "diet:vegetarian": null, "diet:halal": null, "wheelchair": null, "official_name": null, "branch": null, "smoking": null, "short_name": null, "delivery": null, "not:brand:wikidata": null, "indoor_seating": null, "number": null }, "geometry": { "type": "Point", "coordinates": [ -77.3141587, 38.8254612 ] } },
{ "type": "Feature", "properties": { "osm_id": 7212088024, "amenity": "restaurant", "operator": null, "addr:housenumber": "10621", "name": "Brion's Grille", "shop": null, "brand": null, "sport": null, "ref": null, "website": "https:\/\/www.brionsgrille.com\/", "addr:city": "Fairfax", "addr:postcode": "22032", "description": null, "addr:state": "VA", "phone": null, "theme": null, "opening_hours": null, "addr:street": "Braddock Road", "payment:cash": null, "payment:credit_cards": null, "air_conditioning": null, "internet_access": null, "addr:unit": null, "brand:wikidata": null, "cuisine": null, "takeaway": null, "drive_through": null, "alt_name": null, "diet:meat": null, "diet:vegetarian": null, "diet:halal": null, "wheelchair": null, "official_name": null, "branch": null, "smoking": null, "short_name": null, "delivery": null, "not:brand:wikidata": null, "indoor_seating": null, "number": null }, "geometry": { "type": "Point", "coordinates": [ -77.3139394, 38.8254372 ] } },
{ "type": "Feature", "properties": { "osm_id": 6549820233, "amenity": null, "operator": null, "addr:housenumber": "10625", "name": null, "shop": null, "brand": null, "sport": null, "ref": null, "website": null, "addr:city": "Fairfax", "addr:postcode": "22030", "description": null, "addr:state": "VA", "phone": null, "theme": null, "opening_hours": null, "addr:street": "Legacy Lane", "payment:cash": null, "payment:credit_cards": null, "air_conditioning": null, "internet_access": null, "addr:unit": null, "brand:wikidata": null, "cuisine": null, "takeaway": null, "drive_through": null, "alt_name": null, "diet:meat": null, "diet:vegetarian": null, "diet:halal": null, "wheelchair": null, "official_name": null, "branch": null, "smoking": null, "short_name": null, "delivery": null, "not:brand:wikidata": null, "indoor_seating": null, "number": null }, "geometry": { "type": "Point", "coordinates": [ -77.3133118, 38.8365157 ] } },
{ "type": "Feature", "properties": { "osm_id": 3340947357, "amenity": "cafe", "operator": null, "addr:housenumber": "4400", "name": "Starbucks", "shop": null, "brand": "Starbucks", "sport": null, "ref": "1007358", "website": "https:\/\/www.starbucks.com\/store-locator\/store\/1007358\/george-mason-univ-johnson-cen-4400-university-fairfax-va-22030-us", "addr:city": "Fairfax", "addr:postcode": "22030", "description": null, "addr:state": "VA", "phone": "+1 703-993-3305", "theme": null, "opening_hours": null, "addr:street": "University", "payment:cash": null, "payment:credit_cards": null, "air_conditioning": null, "internet_access": "yes", "addr:unit": null, "brand:wikidata": "Q37158", "cuisine": "coffee_shop", "takeaway": "yes", "drive_through": null, "alt_name": null, "diet:meat": null, "diet:vegetarian": null, "diet:halal": null, "wheelchair": "yes", "official_name": "Starbucks Coffee", "branch": "George Mason Univ. Johnson Cen", "smoking": "no", "short_name": null, "delivery": null, "not:brand:wikidata": null, "indoor_seating": null, "number": null }, "geometry": { "type": "Point", "coordinates": [ -77.3070326, 38.829571 ] } },
{ "type": "Feature", "properties": { "osm_id": 11378598549, "amenity": "cafe", "operator": null, "addr:housenumber": "4400", "name": "Starbucks", "shop": null, "brand": "Starbucks", "sport": null, "ref": "1007358", "website": "https:\/\/www.starbucks.com\/store-locator\/store\/1007358\/george-mason-univ-johnson-cen-4400-university-fairfax-va-22030-us", "addr:city": "Fairfax", "addr:postcode": "22030", "description": null, "addr:state": "VA", "phone": "+1 703-993-3305", "theme": null, "opening_hours": null, "addr:street": "University", "payment:cash": null, "payment:credit_cards": null, "air_conditioning": null, "internet_access": "yes", "addr:unit": null, "brand:wikidata": "Q37158", "cuisine": "coffee_shop", "takeaway": "yes", "drive_through": null, "alt_name": null, "diet:meat": null, "diet:vegetarian": null, "diet:halal": null, "wheelchair": "yes", "official_name": "Starbucks Coffee", "branch": null, "smoking": "no", "short_name": null, "delivery": null, "not:brand:wikidata": null, "indoor_seating": null, "number": null }, "geometry": { "type": "Point", "coordinates": [ -77.3069066, 38.8296273 ] } },
{ "type": "Feature", "properties": { "osm_id": 11378598543, "amenity": "fast_food", "operator": null, "addr:housenumber": "4477", "name": "Chipotle", "shop": null, "brand": "Chipotle", "sport": null, "ref": null, "website": "https:\/\/locations.chipotle.com\/va\/fairfax\/4477-aquia-creek-lane", "addr:city": "Fairfax", "addr:postcode": "22030", "description": null, "addr:state": "VA", "phone": "+1 571-459-2152", "theme": null, "opening_hours": null, "addr:street": "Aquia Creek Lane", "payment:cash": null, "payment:credit_cards": null, "air_conditioning": null, "internet_access": null, "addr:unit": null, "brand:wikidata": "Q465751", "cuisine": "mexican", "takeaway": "yes", "drive_through": null, "alt_name": null, "diet:meat": null, "diet:vegetarian": null, "diet:halal": null, "wheelchair": null, "official_name": "Chipotle Mexican Grill", "branch": null, "smoking": null, "short_name": null, "delivery": null, "not:brand:wikidata": null, "indoor_seating": null, "number": null }, "geometry": { "type": "Point", "coordinates": [ -77.3077046, 38.8298978 ] } },
{ "type": "Feature", "properties": { "osm_id": 3337388052, "amenity": "fast_food", "operator": null, "addr:housenumber": "4400", "name": "Panera Bread", "shop": null, "brand": "Panera Bread", "sport": null, "ref": null, "website": "https:\/\/locations.panerabread.com\/va\/fairfax\/4400-university-drive.html", "addr:city": "Fairfax", "addr:postcode": "22030", "description": null, "addr:state": "VA", "phone": "+1 703-251-0069", "theme": null, "opening_hours": "Mo-Fr 07:00-21:00; Sa-Su 08:00-20:00", "addr:street": "University Drive", "payment:cash": null, "payment:credit_cards": null, "air_conditioning": null, "internet_access": null, "addr:unit": null, "brand:wikidata": "Q7130852", "cuisine": "sandwich;bakery", "takeaway": "yes", "drive_through": null, "alt_name": null, "diet:meat": null, "diet:vegetarian": null, "diet:halal": null, "wheelchair": "yes", "official_name": null, "branch": null, "smoking": null, "short_name": "Panera", "delivery": null, "not:brand:wikidata": null, "indoor_seating": null, "number": null }, "geometry": { "type": "Point", "coordinates": [ -77.307451, 38.8304611 ] } },
{ "type": "Feature", "properties": { "osm_id": 3372559880, "amenity": "restaurant", "operator": null, "addr:housenumber": "4400", "name": "Ike's", "shop": null, "brand": null, "sport": null, "ref": null, "website": "https:\/\/gmu.sodexomyway.com\/index.html", "addr:city": "Fairfax", "addr:postcode": "22030", "description": null, "addr:state": "VA", "phone": null, "theme": null, "opening_hours": "Mo-Th 07:00-21:00; Fr 07:00-14:00; Sa off; Su 16:00-21:00", "addr:street": "Presidents Park Drive", "payment:cash": null, "payment:credit_cards": null, "air_conditioning": null, "internet_access": null, "addr:unit": null, "brand:wikidata": null, "cuisine": "international", "takeaway": "no", "drive_through": null, "alt_name": null, "diet:meat": null, "diet:vegetarian": null, "diet:halal": null, "wheelchair": null, "official_name": null, "branch": null, "smoking": "no", "short_name": null, "delivery": "no", "not:brand:wikidata": "Q112028897", "indoor_seating": null, "number": null }, "geometry": { "type": "Point", "coordinates": [ -77.3023602, 38.8288773 ] } },
{ "type": "Feature", "properties": { "osm_id": 11938510396, "amenity": "fast_food", "operator": null, "addr:housenumber": "4400", "name": "Chick-fil-A", "shop": null, "brand": "Chick-fil-A", "sport": null, "ref": "80428", "website": "https:\/\/www.chick-fil-a.com\/locations\/va\/george-mason-university-sub-1", "addr:city": "Fairfax", "addr:postcode": "22030", "description": null, "addr:state": "VA", "phone": "+1 703-993-9259", "theme": null, "opening_hours": null, "addr:street": "University Drive", "payment:cash": null, "payment:credit_cards": null, "air_conditioning": null, "internet_access": null, "addr:unit": "1", "brand:wikidata": "Q491516", "cuisine": "chicken", "takeaway": "yes", "drive_through": "no", "alt_name": null, "diet:meat": null, "diet:vegetarian": null, "diet:halal": null, "wheelchair": null, "official_name": null, "branch": "George Mason University", "smoking": null, "short_name": null, "delivery": "no", "not:brand:wikidata": null, "indoor_seating": "no", "number": null }, "geometry": { "type": "Point", "coordinates": [ -77.309264, 38.831526 ] } },
{ "type": "Feature", "properties": { "osm_id": 11378598551, "amenity": "fast_food", "operator": null, "addr:housenumber": "4349", "name": "Dunkin'", "shop": null, "brand": "Dunkin'", "sport": null, "ref": "308047", "website": "https:\/\/locations.dunkindonuts.com\/en\/va\/fairfax\/4349-chesapeake-ln\/356615", "addr:city": "Fairfax", "addr:postcode": "22030", "description": null, "addr:state": "VA", "phone": "+1 703-993-6688", "theme": null, "opening_hours": "Mo-Fr 07:00-18:00; Sa-Su 08:00-13:00", "addr:street": "Chesapeake Lane", "payment:cash": null, "payment:credit_cards": null, "air_conditioning": null, "internet_access": null, "addr:unit": null, "brand:wikidata": "Q847743", "cuisine": "donut;coffee_shop", "takeaway": "yes", "drive_through": "no", "alt_name": "Dunkin' Donuts", "diet:meat": null, "diet:vegetarian": null, "diet:halal": null, "wheelchair": null, "official_name": null, "branch": null, "smoking": null, "short_name": null, "delivery": null, "not:brand:wikidata": null, "indoor_seating": null, "number": null }, "geometry": { "type": "Point", "coordinates": [ -77.3060982, 38.8319118 ] } },
{ "type": "Feature", "properties": { "osm_id": 575981123, "amenity": "cafe", "operator": null, "addr:housenumber": "4401", "name": "Starbucks", "shop": null, "brand": "Starbucks", "sport": null, "ref": "10908", "website": "https:\/\/www.starbucks.com\/store-locator\/store\/10908\/george-mason-univ-northern-ne-4401-university-drive-fairfax-va-220304481-us", "addr:city": "Fairfax", "addr:postcode": "22030-4481", "description": null, "addr:state": "VA", "phone": "+1 703-993-5065", "theme": null, "opening_hours": "24\/7", "addr:street": "University Drive", "payment:cash": null, "payment:credit_cards": null, "air_conditioning": null, "internet_access": null, "addr:unit": null, "brand:wikidata": "Q37158", "cuisine": "coffee_shop", "takeaway": "yes", "drive_through": null, "alt_name": null, "diet:meat": null, "diet:vegetarian": null, "diet:halal": null, "wheelchair": "yes", "official_name": "Starbucks Coffee", "branch": "George Mason Univ. Northern Northeast", "smoking": null, "short_name": null, "delivery": null, "not:brand:wikidata": null, "indoor_seating": null, "number": "70035-79577" }, "geometry": { "type": "Point", "coordinates": [ -77.3072088, 38.833819 ] } },
{ "type": "Feature", "properties": { "osm_id": 7703206735, "amenity": "fast_food", "operator": null, "addr:housenumber": "4400", "name": "Subway", "shop": null, "brand": "Subway", "sport": null, "ref": null, "website": "https:\/\/restaurants.subway.com\/united-states\/va\/fairfax\/4400-university-drive", "addr:city": "Fairfax", "addr:postcode": "22030", "description": null, "addr:state": "VA", "phone": "+1 703-993-6196", "theme": null, "opening_hours": "Mo-Th 11:00-15:00; Fr 00:30-01:00", "addr:street": "University Drive", "payment:cash": null, "payment:credit_cards": null, "air_conditioning": null, "internet_access": null, "addr:unit": null, "brand:wikidata": "Q244457", "cuisine": "sandwich", "takeaway": "yes", "drive_through": null, "alt_name": null, "diet:meat": null, "diet:vegetarian": null, "diet:halal": null, "wheelchair": null, "official_name": null, "branch": null, "smoking": null, "short_name": null, "delivery": null, "not:brand:wikidata": null, "indoor_seating": null, "number": null }, "geometry": { "type": "Point", "coordinates": [ -77.3107835, 38.8343228 ] } },
{ "type": "Feature", "properties": { "osm_id": 11378598558, "amenity": "fast_food", "operator": null, "addr:housenumber": "4441", "name": "Panda Express", "shop": null, "brand": "Panda Express", "sport": null, "ref": null, "website": "https:\/\/www.pandaexpress.com\/location\/george-mason-university-university-hall-px\/menu", "addr:city": "Fairfax", "addr:postcode": "22030", "description": null, "addr:state": "VA", "phone": "+1 703-993-6042", "theme": null, "opening_hours": "Mo-Th 11:00-15:00; Fr 00:30-01:00", "addr:street": "George Mason Boulevard", "payment:cash": null, "payment:credit_cards": null, "air_conditioning": null, "internet_access": null, "addr:unit": null, "brand:wikidata": "Q1358690", "cuisine": "chinese", "takeaway": "yes", "drive_through": null, "alt_name": null, "diet:meat": null, "diet:vegetarian": null, "diet:halal": null, "wheelchair": null, "official_name": null, "branch": "George Mason University", "smoking": null, "short_name": null, "delivery": null, "not:brand:wikidata": null, "indoor_seating": null, "number": null }, "geometry": { "type": "Point", "coordinates": [ -77.3079463, 38.8348341 ] } },
{ "type": "Feature", "properties": { "osm_id": 2869680401, "amenity": null, "operator": null, "addr:housenumber": "10191", "name": null, "shop": null, "brand": null, "sport": null, "ref": null, "website": null, "addr:city": "Fairfax", "addr:postcode": "22030", "description": null, "addr:state": null, "phone": null, "theme": null, "opening_hours": null, "addr:street": "Evesham Lane", "payment:cash": null, "payment:credit_cards": null, "air_conditioning": null, "internet_access": null, "addr:unit": null, "brand:wikidata": null, "cuisine": null, "takeaway": null, "drive_through": null, "alt_name": null, "diet:meat": null, "diet:vegetarian": null, "diet:halal": null, "wheelchair": null, "official_name": null, "branch": null, "smoking": null, "short_name": null, "delivery": null, "not:brand:wikidata": null, "indoor_seating": null, "number": null }, "geometry": { "type": "Point", "coordinates": [ -77.299827, 38.8324733 ] } },
{ "type": "Feature", "properties": { "osm_id": 2869696102, "amenity": null, "operator": null, "addr:housenumber": "10205", "name": null, "shop": null, "brand": null, "sport": null, "ref": null, "website": null, "addr:city": "Fairfax", "addr:postcode": "22030", "description": null, "addr:state": null, "phone": null, "theme": null, "opening_hours": null, "addr:street": "Evesham Lane", "payment:cash": null, "payment:credit_cards": null, "air_conditioning": null, "internet_access": null, "addr:unit": null, "brand:wikidata": null, "cuisine": null, "takeaway": null, "drive_through": null, "alt_name": null, "diet:meat": null, "diet:vegetarian": null, "diet:halal": null, "wheelchair": null, "official_name": null, "branch": null, "smoking": null, "short_name": null, "delivery": null, "not:brand:wikidata": null, "indoor_seating": null, "number": null }, "geometry": { "type": "Point", "coordinates": [ -77.3000595, 38.8326339 ] } },
{ "type": "Feature", "properties": { "osm_id": 2869694406, "amenity": null, "operator": null, "addr:housenumber": "10197", "name": null, "shop": null, "brand": null, "sport": null, "ref": null, "website": null, "addr:city": "Fairfax", "addr:postcode": "22030", "description": null, "addr:state": null, "phone": null, "theme": null, "opening_hours": null, "addr:street": "Evesham Lane", "payment:cash": null, "payment:credit_cards": null, "air_conditioning": null, "internet_access": null, "addr:unit": null, "brand:wikidata": null, "cuisine": null, "takeaway": null, "drive_through": null, "alt_name": null, "diet:meat": null, "diet:vegetarian": null, "diet:halal": null, "wheelchair": null, "official_name": null, "branch": null, "smoking": null, "short_name": null, "delivery": null, "not:brand:wikidata": null, "indoor_seating": null, "number": null }, "geometry": { "type": "Point", "coordinates": [ -77.2998226, 38.8326354 ] } },
{ "type": "Feature", "properties": { "osm_id": 2869696101, "amenity": null, "operator": null, "addr:housenumber": "10203", "name": null, "shop": null, "brand": null, "sport": null, "ref": null, "website": null, "addr:city": "Fairfax", "addr:postcode": "22030", "description": null, "addr:state": null, "phone": null, "theme": null, "opening_hours": null, "addr:street": "Evesham Lane", "payment:cash": null, "payment:credit_cards": null, "air_conditioning": null, "internet_access": null, "addr:unit": null, "brand:wikidata": null, "cuisine": null, "takeaway": null, "drive_through": null, "alt_name": null, "diet:meat": null, "diet:vegetarian": null, "diet:halal": null, "wheelchair": null, "official_name": null, "branch": null, "smoking": null, "short_name": null, "delivery": null, "not:brand:wikidata": null, "indoor_seating": null, "number": null }, "geometry": { "type": "Point", "coordinates": [ -77.299933, 38.8327137 ] } },
{ "type": "Feature", "properties": { "osm_id": 2869694901, "amenity": null, "operator": null, "addr:housenumber": "10199", "name": null, "shop": null, "brand": null, "sport": null, "ref": null, "website": null, "addr:city": "Fairfax", "addr:postcode": "22030", "description": null, "addr:state": null, "phone": null, "theme": null, "opening_hours": null, "addr:street": "Evesham Lane", "payment:cash": null, "payment:credit_cards": null, "air_conditioning": null, "internet_access": null, "addr:unit": null, "brand:wikidata": null, "cuisine": null, "takeaway": null, "drive_through": null, "alt_name": null, "diet:meat": null, "diet:vegetarian": null, "diet:halal": null, "wheelchair": null, "official_name": null, "branch": null, "smoking": null, "short_name": null, "delivery": null, "not:brand:wikidata": null, "indoor_seating": null, "number": null }, "geometry": { "type": "Point", "coordinates": [ -77.299873, 38.8326712 ] } },
{ "type": "Feature", "properties": { "osm_id": 2869696001, "amenity": null, "operator": null, "addr:housenumber": "10201", "name": null, "shop": null, "brand": null, "sport": null, "ref": null, "website": null, "addr:city": "Fairfax", "addr:postcode": "22030", "description": null, "addr:state": null, "phone": null, "theme": null, "opening_hours": null, "addr:street": "Evesham Lane", "payment:cash": null, "payment:credit_cards": null, "air_conditioning": null, "internet_access": null, "addr:unit": null, "brand:wikidata": null, "cuisine": null, "takeaway": null, "drive_through": null, "alt_name": null, "diet:meat": null, "diet:vegetarian": null, "diet:halal": null, "wheelchair": null, "official_name": null, "branch": null, "smoking": null, "short_name": null, "delivery": null, "not:brand:wikidata": null, "indoor_seating": null, "number": null }, "geometry": { "type": "Point", "coordinates": [ -77.2998865, 38.8326848 ] } },
{ "type": "Feature", "properties": { "osm_id": 2869682803, "amenity": null, "operator": null, "addr:housenumber": "10207", "name": null, "shop": null, "brand": null, "sport": null, "ref": null, "website": null, "addr:city": "Fairfax", "addr:postcode": "22030", "description": null, "addr:state": null, "phone": null, "theme": null, "opening_hours": null, "addr:street": "Evesham Lane", "payment:cash": null, "payment:credit_cards": null, "air_conditioning": null, "internet_access": null, "addr:unit": null, "brand:wikidata": null, "cuisine": null, "takeaway": null, "drive_through": null, "alt_name": null, "diet:meat": null, "diet:vegetarian": null, "diet:halal": null, "wheelchair": null, "official_name": null, "branch": null, "smoking": null, "short_name": null, "delivery": null, "not:brand:wikidata": null, "indoor_seating": null, "number": null }, "geometry": { "type": "Point", "coordinates": [ -77.3000075, 38.8327343 ] } },
{ "type": "Feature", "properties": { "osm_id": 2869701070, "amenity": null, "operator": null, "addr:housenumber": "10209", "name": null, "shop": null, "brand": null, "sport": null, "ref": null, "website": null, "addr:city": "Fairfax", "addr:postcode": "22030", "description": null, "addr:state": null, "phone": null, "theme": null, "opening_hours": null, "addr:street": "Evesham Lane", "payment:cash": null, "payment:credit_cards": null, "air_conditioning": null, "internet_access": null, "addr:unit": null, "brand:wikidata": null, "cuisine": null, "takeaway": null, "drive_through": null, "alt_name": null, "diet:meat": null, "diet:vegetarian": null, "diet:halal": null, "wheelchair": null, "official_name": null, "branch": null, "smoking": null, "short_name": null, "delivery": null, "not:brand:wikidata": null, "indoor_seating": null, "number": null }, "geometry": { "type": "Point", "coordinates": [ -77.3000114, 38.8327932 ] } },
{ "type": "Feature", "properties": { "osm_id": 2869703855, "amenity": null, "operator": null, "addr:housenumber": "10213", "name": null, "shop": null, "brand": null, "sport": null, "ref": null, "website": null, "addr:city": "Fairfax", "addr:postcode": "22030", "description": null, "addr:state": null, "phone": null, "theme": null, "opening_hours": null, "addr:street": "Evesham Lane", "payment:cash": null, "payment:credit_cards": null, "air_conditioning": null, "internet_access": null, "addr:unit": null, "brand:wikidata": null, "cuisine": null, "takeaway": null, "drive_through": null, "alt_name": null, "diet:meat": null, "diet:vegetarian": null, "diet:halal": null, "wheelchair": null, "official_name": null, "branch": null, "smoking": null, "short_name": null, "delivery": null, "not:brand:wikidata": null, "indoor_seating": null, "number": null }, "geometry": { "type": "Point", "coordinates": [ -77.3000698, 38.8328356 ] } },
{ "type": "Feature", "properties": { "osm_id": 2869692460, "amenity": null, "operator": null, "addr:housenumber": "10211", "name": null, "shop": null, "brand": null, "sport": null, "ref": null, "website": null, "addr:city": "Fairfax", "addr:postcode": "22030", "description": null, "addr:state": null, "phone": null, "theme": null, "opening_hours": null, "addr:street": "Evesham Lane", "payment:cash": null, "payment:credit_cards": null, "air_conditioning": null, "internet_access": null, "addr:unit": null, "brand:wikidata": null, "cuisine": null, "takeaway": null, "drive_through": null, "alt_name": null, "diet:meat": null, "diet:vegetarian": null, "diet:halal": null, "wheelchair": null, "official_name": null, "branch": null, "smoking": null, "short_name": null, "delivery": null, "not:brand:wikidata": null, "indoor_seating": null, "number": null }, "geometry": { "type": "Point", "coordinates": [ -77.3000558, 38.8328254 ] } },
{ "type": "Feature", "properties": { "osm_id": 2869703856, "amenity": null, "operator": null, "addr:housenumber": "10215", "name": null, "shop": null, "brand": null, "sport": null, "ref": null, "website": null, "addr:city": "Fairfax", "addr:postcode": "22030", "description": null, "addr:state": null, "phone": null, "theme": null, "opening_hours": null, "addr:street": "Evesham Lane", "payment:cash": null, "payment:credit_cards": null, "air_conditioning": null, "internet_access": null, "addr:unit": null, "brand:wikidata": null, "cuisine": null, "takeaway": null, "drive_through": null, "alt_name": null, "diet:meat": null, "diet:vegetarian": null, "diet:halal": null, "wheelchair": null, "official_name": null, "branch": null, "smoking": null, "short_name": null, "delivery": null, "not:brand:wikidata": null, "indoor_seating": null, "number": null }, "geometry": { "type": "Point", "coordinates": [ -77.300171, 38.8329206 ] } },
{ "type": "Feature", "properties": { "osm_id": 2869710188, "amenity": null, "operator": null, "addr:housenumber": "10219", "name": null, "shop": null, "brand": null, "sport": null, "ref": null, "website": null, "addr:city": "Fairfax", "addr:postcode": "22030", "description": null, "addr:state": null, "phone": null, "theme": null, "opening_hours": null, "addr:street": "Evesham Lane", "payment:cash": null, "payment:credit_cards": null, "air_conditioning": null, "internet_access": null, "addr:unit": null, "brand:wikidata": null, "cuisine": null, "takeaway": null, "drive_through": null, "alt_name": null, "diet:meat": null, "diet:vegetarian": null, "diet:halal": null, "wheelchair": null, "official_name": null, "branch": null, "smoking": null, "short_name": null, "delivery": null, "not:brand:wikidata": null, "indoor_seating": null, "number": null }, "geometry": { "type": "Point", "coordinates": [ -77.3002174, 38.8329763 ] } },
{ "type": "Feature", "properties": { "osm_id": 2869704764, "amenity": null, "operator": null, "addr:housenumber": "10217", "name": null, "shop": null, "brand": null, "sport": null, "ref": null, "website": null, "addr:city": "Fairfax", "addr:postcode": "22030", "description": null, "addr:state": null, "phone": null, "theme": null, "opening_hours": null, "addr:street": "Evesham Lane", "payment:cash": null, "payment:credit_cards": null, "air_conditioning": null, "internet_access": null, "addr:unit": null, "brand:wikidata": null, "cuisine": null, "takeaway": null, "drive_through": null, "alt_name": null, "diet:meat": null, "diet:vegetarian": null, "diet:halal": null, "wheelchair": null, "official_name": null, "branch": null, "smoking": null, "short_name": null, "delivery": null, "not:brand:wikidata": null, "indoor_seating": null, "number": null }, "geometry": { "type": "Point", "coordinates": [ -77.3002067, 38.8329635 ] } },
{ "type": "Feature", "properties": { "osm_id": 2869725923, "amenity": null, "operator": null, "addr:housenumber": "10247", "name": null, "shop": null, "brand": null, "sport": null, "ref": null, "website": null, "addr:city": "Fairfax", "addr:postcode": "22030", "description": null, "addr:state": null, "phone": null, "theme": null, "opening_hours": null, "addr:street": "Evesham Lane", "payment:cash": null, "payment:credit_cards": null, "air_conditioning": null, "internet_access": null, "addr:unit": null, "brand:wikidata": null, "cuisine": null, "takeaway": null, "drive_through": null, "alt_name": null, "diet:meat": null, "diet:vegetarian": null, "diet:halal": null, "wheelchair": null, "official_name": null, "branch": null, "smoking": null, "short_name": null, "delivery": null, "not:brand:wikidata": null, "indoor_seating": null, "number": null }, "geometry": { "type": "Point", "coordinates": [ -77.3010356, 38.8337947 ] } },
{ "type": "Feature", "properties": { "osm_id": 2869725921, "amenity": null, "operator": null, "addr:housenumber": "10251", "name": null, "shop": null, "brand": null, "sport": null, "ref": null, "website": null, "addr:city": "Fairfax", "addr:postcode": "22030", "description": null, "addr:state": null, "phone": null, "theme": null, "opening_hours": null, "addr:street": "Evesham Lane", "payment:cash": null, "payment:credit_cards": null, "air_conditioning": null, "internet_access": null, "addr:unit": null, "brand:wikidata": null, "cuisine": null, "takeaway": null, "drive_through": null, "alt_name": null, "diet:meat": null, "diet:vegetarian": null, "diet:halal": null, "wheelchair": null, "official_name": null, "branch": null, "smoking": null, "short_name": null, "delivery": null, "not:brand:wikidata": null, "indoor_seating": null, "number": null }, "geometry": { "type": "Point", "coordinates": [ -77.3009378, 38.8339186 ] } },
{ "type": "Feature", "properties": { "osm_id": 2869725922, "amenity": null, "operator": null, "addr:housenumber": "10249", "name": null, "shop": null, "brand": null, "sport": null, "ref": null, "website": null, "addr:city": "Fairfax", "addr:postcode": "22030", "description": null, "addr:state": null, "phone": null, "theme": null, "opening_hours": null, "addr:street": "Evesham Lane", "payment:cash": null, "payment:credit_cards": null, "air_conditioning": null, "internet_access": null, "addr:unit": null, "brand:wikidata": null, "cuisine": null, "takeaway": null, "drive_through": null, "alt_name": null, "diet:meat": null, "diet:vegetarian": null, "diet:halal": null, "wheelchair": null, "official_name": null, "branch": null, "smoking": null, "short_name": null, "delivery": null, "not:brand:wikidata": null, "indoor_seating": null, "number": null }, "geometry": { "type": "Point", "coordinates": [ -77.3009083, 38.8338745 ] } },
{ "type": "Feature", "properties": { "osm_id": 2869725924, "amenity": null, "operator": null, "addr:housenumber": "10245", "name": null, "shop": null, "brand": null, "sport": null, "ref": null, "website": null, "addr:city": "Fairfax", "addr:postcode": "22030", "description": null, "addr:state": null, "phone": null, "theme": null, "opening_hours": null, "addr:street": "Evesham Lane", "payment:cash": null, "payment:credit_cards": null, "air_conditioning": null, "internet_access": null, "addr:unit": null, "brand:wikidata": null, "cuisine": null, "takeaway": null, "drive_through": null, "alt_name": null, "diet:meat": null, "diet:vegetarian": null, "diet:halal": null, "wheelchair": null, "official_name": null, "branch": null, "smoking": null, "short_name": null, "delivery": null, "not:brand:wikidata": null, "indoor_seating": null, "number": null }, "geometry": { "type": "Point", "coordinates": [ -77.3007217, 38.8336439 ] } },
{ "type": "Feature", "properties": { "osm_id": 2869721482, "amenity": null, "operator": null, "addr:housenumber": "10265", "name": null, "shop": null, "brand": null, "sport": null, "ref": null, "website": null, "addr:city": "Fairfax", "addr:postcode": "22030", "description": null, "addr:state": null, "phone": null, "theme": null, "opening_hours": null, "addr:street": "Evesham Lane", "payment:cash": null, "payment:credit_cards": null, "air_conditioning": null, "internet_access": null, "addr:unit": null, "brand:wikidata": null, "cuisine": null, "takeaway": null, "drive_through": null, "alt_name": null, "diet:meat": null, "diet:vegetarian": null, "diet:halal": null, "wheelchair": null, "official_name": null, "branch": null, "smoking": null, "short_name": null, "delivery": null, "not:brand:wikidata": null, "indoor_seating": null, "number": null }, "geometry": { "type": "Point", "coordinates": [ -77.3012583, 38.8341338 ] } },
{ "type": "Feature", "properties": { "osm_id": 2869719223, "amenity": null, "operator": null, "addr:housenumber": "10279", "name": null, "shop": null, "brand": null, "sport": null, "ref": null, "website": null, "addr:city": "Fairfax", "addr:postcode": "22030", "description": null, "addr:state": null, "phone": null, "theme": null, "opening_hours": null, "addr:street": "Evesham Lane", "payment:cash": null, "payment:credit_cards": null, "air_conditioning": null, "internet_access": null, "addr:unit": null, "brand:wikidata": null, "cuisine": null, "takeaway": null, "drive_through": null, "alt_name": null, "diet:meat": null, "diet:vegetarian": null, "diet:halal": null, "wheelchair": null, "official_name": null, "branch": null, "smoking": null, "short_name": null, "delivery": null, "not:brand:wikidata": null, "indoor_seating": null, "number": null }, "geometry": { "type": "Point", "coordinates": [ -77.3013691, 38.8344224 ] } },
{ "type": "Feature", "properties": { "osm_id": 2869591199, "amenity": null, "operator": null, "addr:housenumber": "10271", "name": null, "shop": null, "brand": null, "sport": null, "ref": null, "website": null, "addr:city": "Fairfax", "addr:postcode": "22030", "description": null, "addr:state": null, "phone": null, "theme": null, "opening_hours": null, "addr:street": "Evesham Lane", "payment:cash": null, "payment:credit_cards": null, "air_conditioning": null, "internet_access": null, "addr:unit": null, "brand:wikidata": null, "cuisine": null, "takeaway": null, "drive_through": null, "alt_name": null, "diet:meat": null, "diet:vegetarian": null, "diet:halal": null, "wheelchair": null, "official_name": null, "branch": null, "smoking": null, "short_name": null, "delivery": null, "not:brand:wikidata": null, "indoor_seating": null, "number": null }, "geometry": { "type": "Point", "coordinates": [ -77.3011861, 38.8342866 ] } },
{ "type": "Feature", "properties": { "osm_id": 2869591198, "amenity": null, "operator": null, "addr:housenumber": "10273", "name": null, "shop": null, "brand": null, "sport": null, "ref": null, "website": null, "addr:city": "Fairfax", "addr:postcode": "22030", "description": null, "addr:state": null, "phone": null, "theme": null, "opening_hours": null, "addr:street": "Evesham Lane", "payment:cash": null, "payment:credit_cards": null, "air_conditioning": null, "internet_access": null, "addr:unit": null, "brand:wikidata": null, "cuisine": null, "takeaway": null, "drive_through": null, "alt_name": null, "diet:meat": null, "diet:vegetarian": null, "diet:halal": null, "wheelchair": null, "official_name": null, "branch": null, "smoking": null, "short_name": null, "delivery": null, "not:brand:wikidata": null, "indoor_seating": null, "number": null }, "geometry": { "type": "Point", "coordinates": [ -77.3012154, 38.8343272 ] } },
{ "type": "Feature", "properties": { "osm_id": 2742433543, "amenity": null, "operator": null, "addr:housenumber": "10277", "name": null, "shop": null, "brand": null, "sport": null, "ref": null, "website": null, "addr:city": "Fairfax", "addr:postcode": "22030", "description": null, "addr:state": null, "phone": null, "theme": null, "opening_hours": null, "addr:street": "Evesham Lane", "payment:cash": null, "payment:credit_cards": null, "air_conditioning": null, "internet_access": null, "addr:unit": null, "brand:wikidata": null, "cuisine": null, "takeaway": null, "drive_through": null, "alt_name": null, "diet:meat": null, "diet:vegetarian": null, "diet:halal": null, "wheelchair": null, "official_name": null, "branch": null, "smoking": null, "short_name": null, "delivery": null, "not:brand:wikidata": null, "indoor_seating": null, "number": null }, "geometry": { "type": "Point", "coordinates": [ -77.30127, 38.8344027 ] } },
{ "type": "Feature", "properties": { "osm_id": 2869719230, "amenity": null, "operator": null, "addr:housenumber": "10275", "name": null, "shop": null, "brand": null, "sport": null, "ref": null, "website": null, "addr:city": "Fairfax", "addr:postcode": "22030", "description": null, "addr:state": null, "phone": null, "theme": null, "opening_hours": null, "addr:street": "Evesham Lane", "payment:cash": null, "payment:credit_cards": null, "air_conditioning": null, "internet_access": null, "addr:unit": null, "brand:wikidata": null, "cuisine": null, "takeaway": null, "drive_through": null, "alt_name": null, "diet:meat": null, "diet:vegetarian": null, "diet:halal": null, "wheelchair": null, "official_name": null, "branch": null, "smoking": null, "short_name": null, "delivery": null, "not:brand:wikidata": null, "indoor_seating": null, "number": null }, "geometry": { "type": "Point", "coordinates": [ -77.3012686, 38.8344008 ] } },
{ "type": "Feature", "properties": { "osm_id": 2869719222, "amenity": null, "operator": null, "addr:housenumber": "10281", "name": null, "shop": null, "brand": null, "sport": null, "ref": null, "website": null, "addr:city": "Fairfax", "addr:postcode": "22030", "description": null, "addr:state": null, "phone": null, "theme": null, "opening_hours": null, "addr:street": "Evesham Lane", "payment:cash": null, "payment:credit_cards": null, "air_conditioning": null, "internet_access": null, "addr:unit": null, "brand:wikidata": null, "cuisine": null, "takeaway": null, "drive_through": null, "alt_name": null, "diet:meat": null, "diet:vegetarian": null, "diet:halal": null, "wheelchair": null, "official_name": null, "branch": null, "smoking": null, "short_name": null, "delivery": null, "not:brand:wikidata": null, "indoor_seating": null, "number": null }, "geometry": { "type": "Point", "coordinates": [ -77.3013805, 38.834561 ] } },
{ "type": "Feature", "properties": { "osm_id": 2869719221, "amenity": null, "operator": null, "addr:housenumber": "10283", "name": null, "shop": null, "brand": null, "sport": null, "ref": null, "website": null, "addr:city": "Fairfax", "addr:postcode": "22030", "description": null, "addr:state": null, "phone": null, "theme": null, "opening_hours": null, "addr:street": "Evesham Lane", "payment:cash": null, "payment:credit_cards": null, "air_conditioning": null, "internet_access": null, "addr:unit": null, "brand:wikidata": null, "cuisine": null, "takeaway": null, "drive_through": null, "alt_name": null, "diet:meat": null, "diet:vegetarian": null, "diet:halal": null, "wheelchair": null, "official_name": null, "branch": null, "smoking": null, "short_name": null, "delivery": null, "not:brand:wikidata": null, "indoor_seating": null, "number": null }, "geometry": { "type": "Point", "coordinates": [ -77.3013937, 38.8345741 ] } },
{ "type": "Feature", "properties": { "osm_id": 2869719219, "amenity": null, "operator": null, "addr:housenumber": "10287", "name": null, "shop": null, "brand": null, "sport": null, "ref": null, "website": null, "addr:city": "Fairfax", "addr:postcode": "22030", "description": null, "addr:state": null, "phone": null, "theme": null, "opening_hours": null, "addr:street": "Evesham Lane", "payment:cash": null, "payment:credit_cards": null, "air_conditioning": null, "internet_access": null, "addr:unit": null, "brand:wikidata": null, "cuisine": null, "takeaway": null, "drive_through": null, "alt_name": null, "diet:meat": null, "diet:vegetarian": null, "diet:halal": null, "wheelchair": null, "official_name": null, "branch": null, "smoking": null, "short_name": null, "delivery": null, "not:brand:wikidata": null, "indoor_seating": null, "number": null }, "geometry": { "type": "Point", "coordinates": [ -77.3015276, 38.8346911 ] } },
{ "type": "Feature", "properties": { "osm_id": 2869719218, "amenity": null, "operator": null, "addr:housenumber": "10289", "name": null, "shop": null, "brand": null, "sport": null, "ref": null, "website": null, "addr:city": "Fairfax", "addr:postcode": "22030", "description": null, "addr:state": null, "phone": null, "theme": null, "opening_hours": null, "addr:street": "Evesham Lane", "payment:cash": null, "payment:credit_cards": null, "air_conditioning": null, "internet_access": null, "addr:unit": null, "brand:wikidata": null, "cuisine": null, "takeaway": null, "drive_through": null, "alt_name": null, "diet:meat": null, "diet:vegetarian": null, "diet:halal": null, "wheelchair": null, "official_name": null, "branch": null, "smoking": null, "short_name": null, "delivery": null, "not:brand:wikidata": null, "indoor_seating": null, "number": null }, "geometry": { "type": "Point", "coordinates": [ -77.3015419, 38.8347052 ] } },
{ "type": "Feature", "properties": { "osm_id": 2869719217, "amenity": null, "operator": null, "addr:housenumber": "10293", "name": null, "shop": null, "brand": null, "sport": null, "ref": null, "website": null, "addr:city": "Fairfax", "addr:postcode": "22030", "description": null, "addr:state": null, "phone": null, "theme": null, "opening_hours": null, "addr:street": "Evesham Lane", "payment:cash": null, "payment:credit_cards": null, "air_conditioning": null, "internet_access": null, "addr:unit": null, "brand:wikidata": null, "cuisine": null, "takeaway": null, "drive_through": null, "alt_name": null, "diet:meat": null, "diet:vegetarian": null, "diet:halal": null, "wheelchair": null, "official_name": null, "branch": null, "smoking": null, "short_name": null, "delivery": null, "not:brand:wikidata": null, "indoor_seating": null, "number": null }, "geometry": { "type": "Point", "coordinates": [ -77.3015457, 38.8347845 ] } },
{ "type": "Feature", "properties": { "osm_id": 2869719220, "amenity": null, "operator": null, "addr:housenumber": "10285", "name": null, "shop": null, "brand": null, "sport": null, "ref": null, "website": null, "addr:city": "Fairfax", "addr:postcode": "22030", "description": null, "addr:state": null, "phone": null, "theme": null, "opening_hours": null, "addr:street": "Evesham Lane", "payment:cash": null, "payment:credit_cards": null, "air_conditioning": null, "internet_access": null, "addr:unit": null, "brand:wikidata": null, "cuisine": null, "takeaway": null, "drive_through": null, "alt_name": null, "diet:meat": null, "diet:vegetarian": null, "diet:halal": null, "wheelchair": null, "official_name": null, "branch": null, "smoking": null, "short_name": null, "delivery": null, "not:brand:wikidata": null, "indoor_seating": null, "number": null }, "geometry": { "type": "Point", "coordinates": [ -77.3014896, 38.8346539 ] } },
{ "type": "Feature", "properties": { "osm_id": 2869719216, "amenity": null, "operator": null, "addr:housenumber": "10295", "name": null, "shop": null, "brand": null, "sport": null, "ref": null, "website": null, "addr:city": "Fairfax", "addr:postcode": "22030", "description": null, "addr:state": null, "phone": null, "theme": null, "opening_hours": null, "addr:street": "Evesham Lane", "payment:cash": null, "payment:credit_cards": null, "air_conditioning": null, "internet_access": null, "addr:unit": null, "brand:wikidata": null, "cuisine": null, "takeaway": null, "drive_through": null, "alt_name": null, "diet:meat": null, "diet:vegetarian": null, "diet:halal": null, "wheelchair": null, "official_name": null, "branch": null, "smoking": null, "short_name": null, "delivery": null, "not:brand:wikidata": null, "indoor_seating": null, "number": null }, "geometry": { "type": "Point", "coordinates": [ -77.3014981, 38.8348163 ] } },
{ "type": "Feature", "properties": { "osm_id": 2869719215, "amenity": null, "operator": null, "addr:housenumber": "10297", "name": null, "shop": null, "brand": null, "sport": null, "ref": null, "website": null, "addr:city": "Fairfax", "addr:postcode": "22030", "description": null, "addr:state": null, "phone": null, "theme": null, "opening_hours": null, "addr:street": "Evesham Lane", "payment:cash": null, "payment:credit_cards": null, "air_conditioning": null, "internet_access": null, "addr:unit": null, "brand:wikidata": null, "cuisine": null, "takeaway": null, "drive_through": null, "alt_name": null, "diet:meat": null, "diet:vegetarian": null, "diet:halal": null, "wheelchair": null, "official_name": null, "branch": null, "smoking": null, "short_name": null, "delivery": null, "not:brand:wikidata": null, "indoor_seating": null, "number": null }, "geometry": { "type": "Point", "coordinates": [ -77.301481, 38.8348278 ] } },
{ "type": "Feature", "properties": { "osm_id": 2869710891, "amenity": null, "operator": null, "addr:housenumber": "10299", "name": null, "shop": null, "brand": null, "sport": null, "ref": null, "website": null, "addr:city": "Fairfax", "addr:postcode": "22030", "description": null, "addr:state": null, "phone": null, "theme": null, "opening_hours": null, "addr:street": "Evesham Lane", "payment:cash": null, "payment:credit_cards": null, "air_conditioning": null, "internet_access": null, "addr:unit": null, "brand:wikidata": null, "cuisine": null, "takeaway": null, "drive_through": null, "alt_name": null, "diet:meat": null, "diet:vegetarian": null, "diet:halal": null, "wheelchair": null, "official_name": null, "branch": null, "smoking": null, "short_name": null, "delivery": null, "not:brand:wikidata": null, "indoor_seating": null, "number": null }, "geometry": { "type": "Point", "coordinates": [ -77.3014275, 38.8348636 ] } },
{ "type": "Feature", "properties": { "osm_id": 2869722522, "amenity": null, "operator": null, "addr:housenumber": "10257", "name": null, "shop": null, "brand": null, "sport": null, "ref": null, "website": null, "addr:city": "Fairfax", "addr:postcode": "22030", "description": null, "addr:state": null, "phone": null, "theme": null, "opening_hours": null, "addr:street": "Evesham Lane", "payment:cash": null, "payment:credit_cards": null, "air_conditioning": null, "internet_access": null, "addr:unit": null, "brand:wikidata": null, "cuisine": null, "takeaway": null, "drive_through": null, "alt_name": null, "diet:meat": null, "diet:vegetarian": null, "diet:halal": null, "wheelchair": null, "official_name": null, "branch": null, "smoking": null, "short_name": null, "delivery": null, "not:brand:wikidata": null, "indoor_seating": null, "number": null }, "geometry": { "type": "Point", "coordinates": [ -77.301135, 38.8339432 ] } },
{ "type": "Feature", "properties": { "osm_id": 2869721841, "amenity": null, "operator": null, "addr:housenumber": "10259", "name": null, "shop": null, "brand": null, "sport": null, "ref": null, "website": null, "addr:city": "Fairfax", "addr:postcode": "22030", "description": null, "addr:state": null, "phone": null, "theme": null, "opening_hours": null, "addr:street": "Evesham Lane", "payment:cash": null, "payment:credit_cards": null, "air_conditioning": null, "internet_access": null, "addr:unit": null, "brand:wikidata": null, "cuisine": null, "takeaway": null, "drive_through": null, "alt_name": null, "diet:meat": null, "diet:vegetarian": null, "diet:halal": null, "wheelchair": null, "official_name": null, "branch": null, "smoking": null, "short_name": null, "delivery": null, "not:brand:wikidata": null, "indoor_seating": null, "number": null }, "geometry": { "type": "Point", "coordinates": [ -77.3010264, 38.8340543 ] } },
{ "type": "Feature", "properties": { "osm_id": 2869725920, "amenity": null, "operator": null, "addr:housenumber": "10253", "name": null, "shop": null, "brand": null, "sport": null, "ref": null, "website": null, "addr:city": "Fairfax", "addr:postcode": "22030", "description": null, "addr:state": null, "phone": null, "theme": null, "opening_hours": null, "addr:street": "Evesham Lane", "payment:cash": null, "payment:credit_cards": null, "air_conditioning": null, "internet_access": null, "addr:unit": null, "brand:wikidata": null, "cuisine": null, "takeaway": null, "drive_through": null, "alt_name": null, "diet:meat": null, "diet:vegetarian": null, "diet:halal": null, "wheelchair": null, "official_name": null, "branch": null, "smoking": null, "short_name": null, "delivery": null, "not:brand:wikidata": null, "indoor_seating": null, "number": null }, "geometry": { "type": "Point", "coordinates": [ -77.300948, 38.8339337 ] } },
{ "type": "Feature", "properties": { "osm_id": 2869725919, "amenity": null, "operator": null, "addr:housenumber": "10255", "name": null, "shop": null, "brand": null, "sport": null, "ref": null, "website": null, "addr:city": "Fairfax", "addr:postcode": "22030", "description": null, "addr:state": null, "phone": null, "theme": null, "opening_hours": null, "addr:street": "Evesham Lane", "payment:cash": null, "payment:credit_cards": null, "air_conditioning": null, "internet_access": null, "addr:unit": null, "brand:wikidata": null, "cuisine": null, "takeaway": null, "drive_through": null, "alt_name": null, "diet:meat": null, "diet:vegetarian": null, "diet:halal": null, "wheelchair": null, "official_name": null, "branch": null, "smoking": null, "short_name": null, "delivery": null, "not:brand:wikidata": null, "indoor_seating": null, "number": null }, "geometry": { "type": "Point", "coordinates": [ -77.3009776, 38.8339779 ] } },
{ "type": "Feature", "properties": { "osm_id": 2869721811, "amenity": null, "operator": null, "addr:housenumber": "10261", "name": null, "shop": null, "brand": null, "sport": null, "ref": null, "website": null, "addr:city": "Fairfax", "addr:postcode": "22030", "description": null, "addr:state": null, "phone": null, "theme": null, "opening_hours": null, "addr:street": "Evesham Lane", "payment:cash": null, "payment:credit_cards": null, "air_conditioning": null, "internet_access": null, "addr:unit": null, "brand:wikidata": null, "cuisine": null, "takeaway": null, "drive_through": null, "alt_name": null, "diet:meat": null, "diet:vegetarian": null, "diet:halal": null, "wheelchair": null, "official_name": null, "branch": null, "smoking": null, "short_name": null, "delivery": null, "not:brand:wikidata": null, "indoor_seating": null, "number": null }, "geometry": { "type": "Point", "coordinates": [ -77.3010621, 38.8341079 ] } },
{ "type": "Feature", "properties": { "osm_id": 2869721483, "amenity": null, "operator": null, "addr:housenumber": "10263", "name": null, "shop": null, "brand": null, "sport": null, "ref": null, "website": null, "addr:city": "Fairfax", "addr:postcode": "22030", "description": null, "addr:state": null, "phone": null, "theme": null, "opening_hours": null, "addr:street": "Evesham Lane", "payment:cash": null, "payment:credit_cards": null, "air_conditioning": null, "internet_access": null, "addr:unit": null, "brand:wikidata": null, "cuisine": null, "takeaway": null, "drive_through": null, "alt_name": null, "diet:meat": null, "diet:vegetarian": null, "diet:halal": null, "wheelchair": null, "official_name": null, "branch": null, "smoking": null, "short_name": null, "delivery": null, "not:brand:wikidata": null, "indoor_seating": null, "number": null }, "geometry": { "type": "Point", "coordinates": [ -77.301082, 38.8341378 ] } },
{ "type": "Feature", "properties": { "osm_id": 2869721481, "amenity": null, "operator": null, "addr:housenumber": "10267", "name": null, "shop": null, "brand": null, "sport": null, "ref": null, "website": null, "addr:city": "Fairfax", "addr:postcode": "22030", "description": null, "addr:state": null, "phone": null, "theme": null, "opening_hours": null, "addr:street": "Evesham Lane", "payment:cash": null, "payment:credit_cards": null, "air_conditioning": null, "internet_access": null, "addr:unit": null, "brand:wikidata": null, "cuisine": null, "takeaway": null, "drive_through": null, "alt_name": null, "diet:meat": null, "diet:vegetarian": null, "diet:halal": null, "wheelchair": null, "official_name": null, "branch": null, "smoking": null, "short_name": null, "delivery": null, "not:brand:wikidata": null, "indoor_seating": null, "number": null }, "geometry": { "type": "Point", "coordinates": [ -77.3011434, 38.8342272 ] } },
{ "type": "Feature", "properties": { "osm_id": 2869720940, "amenity": null, "operator": null, "addr:housenumber": "10269", "name": null, "shop": null, "brand": null, "sport": null, "ref": null, "website": null, "addr:city": "Fairfax", "addr:postcode": "22030", "description": null, "addr:state": null, "phone": null, "theme": null, "opening_hours": null, "addr:street": "Evesham Lane", "payment:cash": null, "payment:credit_cards": null, "air_conditioning": null, "internet_access": null, "addr:unit": null, "brand:wikidata": null, "cuisine": null, "takeaway": null, "drive_through": null, "alt_name": null, "diet:meat": null, "diet:vegetarian": null, "diet:halal": null, "wheelchair": null, "official_name": null, "branch": null, "smoking": null, "short_name": null, "delivery": null, "not:brand:wikidata": null, "indoor_seating": null, "number": null }, "geometry": { "type": "Point", "coordinates": [ -77.3011746, 38.8342706 ] } },
{ "type": "Feature", "properties": { "osm_id": 2869683201, "amenity": null, "operator": null, "addr:housenumber": "10185", "name": null, "shop": null, "brand": null, "sport": null, "ref": null, "website": null, "addr:city": "Fairfax", "addr:postcode": "22030", "description": null, "addr:state": null, "phone": null, "theme": null, "opening_hours": null, "addr:street": "Evesham Lane", "payment:cash": null, "payment:credit_cards": null, "air_conditioning": null, "internet_access": null, "addr:unit": null, "brand:wikidata": null, "cuisine": null, "takeaway": null, "drive_through": null, "alt_name": null, "diet:meat": null, "diet:vegetarian": null, "diet:halal": null, "wheelchair": null, "official_name": null, "branch": null, "smoking": null, "short_name": null, "delivery": null, "not:brand:wikidata": null, "indoor_seating": null, "number": null }, "geometry": { "type": "Point", "coordinates": [ -77.2994881, 38.8323764 ] } },
{ "type": "Feature", "properties": { "osm_id": 2869682802, "amenity": null, "operator": null, "addr:housenumber": "10183", "name": null, "shop": null, "brand": null, "sport": null, "ref": null, "website": null, "addr:city": "Fairfax", "addr:postcode": "22030", "description": null, "addr:state": null, "phone": null, "theme": null, "opening_hours": null, "addr:street": "Evesham Lane", "payment:cash": null, "payment:credit_cards": null, "air_conditioning": null, "internet_access": null, "addr:unit": null, "brand:wikidata": null, "cuisine": null, "takeaway": null, "drive_through": null, "alt_name": null, "diet:meat": null, "diet:vegetarian": null, "diet:halal": null, "wheelchair": null, "official_name": null, "branch": null, "smoking": null, "short_name": null, "delivery": null, "not:brand:wikidata": null, "indoor_seating": null, "number": null }, "geometry": { "type": "Point", "coordinates": [ -77.2994737, 38.8323657 ] } },
{ "type": "Feature", "properties": { "osm_id": 2869682401, "amenity": null, "operator": null, "addr:housenumber": "10189", "name": null, "shop": null, "brand": null, "sport": null, "ref": null, "website": null, "addr:city": "Fairfax", "addr:postcode": "22030", "description": null, "addr:state": null, "phone": null, "theme": null, "opening_hours": null, "addr:street": "Evesham Lane", "payment:cash": null, "payment:credit_cards": null, "air_conditioning": null, "internet_access": null, "addr:unit": null, "brand:wikidata": null, "cuisine": null, "takeaway": null, "drive_through": null, "alt_name": null, "diet:meat": null, "diet:vegetarian": null, "diet:halal": null, "wheelchair": null, "official_name": null, "branch": null, "smoking": null, "short_name": null, "delivery": null, "not:brand:wikidata": null, "indoor_seating": null, "number": null }, "geometry": { "type": "Point", "coordinates": [ -77.2996034, 38.8324627 ] } },
{ "type": "Feature", "properties": { "osm_id": 2869682801, "amenity": null, "operator": null, "addr:housenumber": "10187", "name": null, "shop": null, "brand": null, "sport": null, "ref": null, "website": null, "addr:city": "Fairfax", "addr:postcode": "22030", "description": null, "addr:state": null, "phone": null, "theme": null, "opening_hours": null, "addr:street": "Evesham Lane", "payment:cash": null, "payment:credit_cards": null, "air_conditioning": null, "internet_access": null, "addr:unit": null, "brand:wikidata": null, "cuisine": null, "takeaway": null, "drive_through": null, "alt_name": null, "diet:meat": null, "diet:vegetarian": null, "diet:halal": null, "wheelchair": null, "official_name": null, "branch": null, "smoking": null, "short_name": null, "delivery": null, "not:brand:wikidata": null, "indoor_seating": null, "number": null }, "geometry": { "type": "Point", "coordinates": [ -77.2995884, 38.8324511 ] } },
{ "type": "Feature", "properties": { "osm_id": 2869692001, "amenity": null, "operator": null, "addr:housenumber": "10179", "name": null, "shop": null, "brand": null, "sport": null, "ref": null, "website": null, "addr:city": "Fairfax", "addr:postcode": "22030", "description": null, "addr:state": null, "phone": null, "theme": null, "opening_hours": null, "addr:street": "Evesham Lane", "payment:cash": null, "payment:credit_cards": null, "air_conditioning": null, "internet_access": null, "addr:unit": null, "brand:wikidata": null, "cuisine": null, "takeaway": null, "drive_through": null, "alt_name": null, "diet:meat": null, "diet:vegetarian": null, "diet:halal": null, "wheelchair": null, "official_name": null, "branch": null, "smoking": null, "short_name": null, "delivery": null, "not:brand:wikidata": null, "indoor_seating": null, "number": null }, "geometry": { "type": "Point", "coordinates": [ -77.2994211, 38.8322775 ] } },
{ "type": "Feature", "properties": { "osm_id": 2869687901, "amenity": null, "operator": null, "addr:housenumber": "10181", "name": null, "shop": null, "brand": null, "sport": null, "ref": null, "website": null, "addr:city": "Fairfax", "addr:postcode": "22030", "description": null, "addr:state": null, "phone": null, "theme": null, "opening_hours": null, "addr:street": "Evesham Lane", "payment:cash": null, "payment:credit_cards": null, "air_conditioning": null, "internet_access": null, "addr:unit": null, "brand:wikidata": null, "cuisine": null, "takeaway": null, "drive_through": null, "alt_name": null, "diet:meat": null, "diet:vegetarian": null, "diet:halal": null, "wheelchair": null, "official_name": null, "branch": null, "smoking": null, "short_name": null, "delivery": null, "not:brand:wikidata": null, "indoor_seating": null, "number": null }, "geometry": { "type": "Point", "coordinates": [ -77.2994335, 38.8323344 ] } },
{ "type": "Feature", "properties": { "osm_id": 2869690701, "amenity": null, "operator": null, "addr:housenumber": "10177", "name": null, "shop": null, "brand": null, "sport": null, "ref": null, "website": null, "addr:city": "Fairfax", "addr:postcode": "22030", "description": null, "addr:state": "VA", "phone": null, "theme": null, "opening_hours": null, "addr:street": "Evesham Lane", "payment:cash": null, "payment:credit_cards": null, "air_conditioning": null, "internet_access": null, "addr:unit": null, "brand:wikidata": null, "cuisine": null, "takeaway": null, "drive_through": null, "alt_name": null, "diet:meat": null, "diet:vegetarian": null, "diet:halal": null, "wheelchair": null, "official_name": null, "branch": null, "smoking": null, "short_name": null, "delivery": null, "not:brand:wikidata": null, "indoor_seating": null, "number": null }, "geometry": { "type": "Point", "coordinates": [ -77.299321, 38.8323215 ] } },
{ "type": "Feature", "properties": { "osm_id": 2869692201, "amenity": null, "operator": null, "addr:housenumber": "10175", "name": null, "shop": null, "brand": null, "sport": null, "ref": null, "website": null, "addr:city": "Fairfax", "addr:postcode": "22030", "description": null, "addr:state": null, "phone": null, "theme": null, "opening_hours": null, "addr:street": "Evesham Lane", "payment:cash": null, "payment:credit_cards": null, "air_conditioning": null, "internet_access": null, "addr:unit": null, "brand:wikidata": null, "cuisine": null, "takeaway": null, "drive_through": null, "alt_name": null, "diet:meat": null, "diet:vegetarian": null, "diet:halal": null, "wheelchair": null, "official_name": null, "branch": null, "smoking": null, "short_name": null, "delivery": null, "not:brand:wikidata": null, "indoor_seating": null, "number": null }, "geometry": { "type": "Point", "coordinates": [ -77.2992654, 38.8323627 ] } },
{ "type": "Feature", "properties": { "osm_id": 2869692501, "amenity": null, "operator": null, "addr:housenumber": "10173", "name": null, "shop": null, "brand": null, "sport": null, "ref": null, "website": null, "addr:city": "Fairfax", "addr:postcode": "22030", "description": null, "addr:state": null, "phone": null, "theme": null, "opening_hours": null, "addr:street": "Evesham Lane", "payment:cash": null, "payment:credit_cards": null, "air_conditioning": null, "internet_access": null, "addr:unit": null, "brand:wikidata": null, "cuisine": null, "takeaway": null, "drive_through": null, "alt_name": null, "diet:meat": null, "diet:vegetarian": null, "diet:halal": null, "wheelchair": null, "official_name": null, "branch": null, "smoking": null, "short_name": null, "delivery": null, "not:brand:wikidata": null, "indoor_seating": null, "number": null }, "geometry": { "type": "Point", "coordinates": [ -77.2992432, 38.8323799 ] } },
{ "type": "Feature", "properties": { "osm_id": 2869693701, "amenity": null, "operator": null, "addr:housenumber": "10171", "name": null, "shop": null, "brand": null, "sport": null, "ref": null, "website": null, "addr:city": "Fairfax", "addr:postcode": "22030", "description": null, "addr:state": null, "phone": null, "theme": null, "opening_hours": null, "addr:street": "Evesham Lane", "payment:cash": null, "payment:credit_cards": null, "air_conditioning": null, "internet_access": null, "addr:unit": null, "brand:wikidata": null, "cuisine": null, "takeaway": null, "drive_through": null, "alt_name": null, "diet:meat": null, "diet:vegetarian": null, "diet:halal": null, "wheelchair": null, "official_name": null, "branch": null, "smoking": null, "short_name": null, "delivery": null, "not:brand:wikidata": null, "indoor_seating": null, "number": null }, "geometry": { "type": "Point", "coordinates": [ -77.2991897, 38.8324212 ] } },
{ "type": "Feature", "properties": { "osm_id": 2869676402, "amenity": null, "operator": null, "addr:housenumber": "10195", "name": null, "shop": null, "brand": null, "sport": null, "ref": null, "website": null, "addr:city": "Fairfax", "addr:postcode": "22030", "description": null, "addr:state": null, "phone": null, "theme": null, "opening_hours": null, "addr:street": "Evesham Lane", "payment:cash": null, "payment:credit_cards": null, "air_conditioning": null, "internet_access": null, "addr:unit": null, "brand:wikidata": null, "cuisine": null, "takeaway": null, "drive_through": null, "alt_name": null, "diet:meat": null, "diet:vegetarian": null, "diet:halal": null, "wheelchair": null, "official_name": null, "branch": null, "smoking": null, "short_name": null, "delivery": null, "not:brand:wikidata": null, "indoor_seating": null, "number": null }, "geometry": { "type": "Point", "coordinates": [ -77.2997511, 38.8325888 ] } },
{ "type": "Feature", "properties": { "osm_id": 2869676401, "amenity": null, "operator": null, "addr:housenumber": "10193", "name": null, "shop": null, "brand": null, "sport": null, "ref": null, "website": null, "addr:city": "Fairfax", "addr:postcode": "22030", "description": null, "addr:state": null, "phone": null, "theme": null, "opening_hours": null, "addr:street": "Evesham Lane", "payment:cash": null, "payment:credit_cards": null, "air_conditioning": null, "internet_access": null, "addr:unit": null, "brand:wikidata": null, "cuisine": null, "takeaway": null, "drive_through": null, "alt_name": null, "diet:meat": null, "diet:vegetarian": null, "diet:halal": null, "wheelchair": null, "official_name": null, "branch": null, "smoking": null, "short_name": null, "delivery": null, "not:brand:wikidata": null, "indoor_seating": null, "number": null }, "geometry": { "type": "Point", "coordinates": [ -77.2997286, 38.8325743 ] } }
]
}
